BEIDOU-3 G4             
1 56564U 23066A   26063.88574513 -.00000121  00000+0  00000+0 0  9994
2 56564   0.6478 310.9770 0002100 158.7490 171.8066  1.00272299 10346
NVS-01 (IRNSS-1J)       
1 56759U 23076A   26063.73100142 -.00000349  00000+0  00000+0 0  9990
2 56759   2.4179 248.6166 0007358  45.2466 261.2852  1.00273893 10066
COSMOS 2569 [GLONASS-K2]
1 57517U 23114A   26063.60906547  .00000011  00000+0  00000+0 0  9990
2 57517  65.2420  76.1460 0012899 291.6250  68.2783  2.13103963 20031
BEIDOU-3 M28            
1 58654U 23207A   26063.59248372 -.00000030  00000+0  00000+0 0  9991
2 58654  55.6604  65.8301 0004911 302.9210  57.0544  1.86229791 14893
BEIDOU-3 M26            
1 58655U 23207B   26062.31605649 -.00000020  00000+0  00000+0 0  9994
2 58655  55.6613  65.8595 0005721 288.0153  71.9513  1.86229607 14852
GSAT0225 (GALILEO 29)   
1 59598U 24079A   26063.40947620  .00000010  00000+0  00000+0 0  9996
2 59598  55.0499 104.0071 0002567 257.4234 103.5813  1.70474922 11537
GSAT0227 (GALILEO 30)   
1 59600U 24079C   26062.41821347  .00000012  00000+0  00000+0 0  9999
2 59600  55.0440 104.0338 0000359  68.5105 291.5792  1.70474834 11567
GSAT0232 (GALILEO 32)   
1 61182U 24167A   26048.66150565  .00000069  00000+0  00000+0 0  9995
2 61182  55.2225 224.5881 0003600 296.6314 116.1306  1.70443939  8265
GSAT0226 (GALILEO 31)   
1 61183U 24167B   26063.09230740  .00000011  00000+0  00000+0 0  9991
2 61183  55.2176 224.2005 0001588 128.6581 232.0353  1.70474186  9066
BEIDOU-3 M25            
1 61186U 24168B   26063.43879645 -.00000064  00000+0  00000+0 0  9995
2 61186  54.5657 305.8833 0004270 318.6783 191.0216  1.86230156  9837
BEIDOU-3 M27            
1 61187U 24168C   26063.08358616 -.00000062  00000+0  00000+0 0  9995
2 61187  54.5615 305.8790 0002971  19.9023  26.6369  1.86230271  7308
NAVSTAR 83 (USA 440)    
1 62339U 24242A   26059.41642148 -.00000100  00000+0  00000+0 0  9999
2 62339  54.8934 338.5934 0015681 355.9356 192.4850  2.00569355  9070
NVS-02 (IRNSS-1K)       
1 62850U 25020A   26063.78176211  .00001126  00000+0  98113-3 0  9994
2 62850  20.8399 297.5889 7349790  79.9914 348.4546  2.17716982  8702
QZS-6 (MICHIBIKI-6)     
1 62876U 25023A   26063.71919897 -.00000243  00000+0  00000+0 0  9997
2 62876   0.0435 310.3847 0001869  28.3826 173.1004  1.00270084  3913
COSMOS 2584 [GLONASS-K2]
1 63130U 25042A   26059.74188024  .00000039  00000+0  00000+0 0  9992
2 63130  65.0213  76.4877 0007822 236.2440 123.7373  2.13103267  7739
NAVSTAR 84 (USA 545)    
1 64202U 25116A   26062.39238152 -.00000077  00000+0  00000+0 0  9991
2 64202  55.1633  35.3874 0008474 325.1064  37.8908  2.00553198  5758
COSMOS 2596 [GLONASS-K1]
1 65590U 25206B   26062.63521083 -.00000053  00000+0  00000+0 0  9991
2 65590  64.6947 318.6620 0012898 315.4778 221.7374  2.13100238  3663
